[{"OBJECT_NAME":"ONEWEB-0463","OBJECT_ID":"2022-012AE","EPOCH":"2026-04-16T16:51:12.907872","MEAN_MOTION":13.17648014,"ECCENTRICITY":0.0001706,"INCLINATION":87.9185,"RA_OF_ASC_NODE":18.0941,"ARG_OF_PERICENTER":75.3627,"MEAN_ANOMALY":284.7694,"EPHEMERIS_TYPE":0,"CLASSIFICATION_TYPE":"U","NORAD_CAT_ID":51650,"ELEMENT_SET_NO":999,"REV_AT_EPOCH":20557,"BSTAR":8.8374e-05,"MEAN_MOTION_DOT":4.7e-07,"MEAN_MOTION_DDOT":0.0},{"OBJECT_NAME":"ONEWEB-0464","OBJECT_ID":"2022-012AF","EPOCH":"2026-04-16T08:03:54.642240","MEAN_MOTION":13.10376158,"ECCENTRICITY":0.0002168,"INCLINATION":87.884,"RA_OF_ASC_NODE":48.5883,"ARG_OF_PERICENTER":82.6672,"MEAN_ANOMALY":277.4701,"EPHEMERIS_TYPE":0,"CLASSIFICATION_TYPE":"U","NORAD_CAT_ID":51651,"ELEMENT_SET_NO":999,"REV_AT_EPOCH":20122,"BSTAR":-0.0013603,"MEAN_MOTION_DOT":-4.62e-06,"MEAN_MOTION_DDOT":0.0},{"OBJECT_NAME":"ONEWEB-0468","OBJECT_ID":"2022-012AG","EPOCH":"2026-04-16T08:13:28.916256","MEAN_MOTION":13.10376555,"ECCENTRICITY":0.0002263,"INCLINATION":87.884,"RA_OF_ASC_NODE":48.581,"ARG_OF_PERICENTER":82.2632,"MEAN_ANOMALY":277.8752,"EPHEMERIS_TYPE":0,"CLASSIFICATION_TYPE":"U","NORAD_CAT_ID":51652,"ELEMENT_SET_NO":999,"REV_AT_EPOCH":20120,"BSTAR":-0.00017625,"MEAN_MOTION_DOT":-4.9e-07,"MEAN_MOTION_DDOT":0.0},{"OBJECT_NAME":"ONEWEB-0473","OBJECT_ID":"2022-012AH","EPOCH":"2026-04-16T06:01:59.628576","MEAN_MOTION":13.10372344,"ECCENTRICITY":0.0001973,"INCLINATION":87.8839,"RA_OF_ASC_NODE":48.6002,"ARG_OF_PERICENTER":82.6269,"MEAN_ANOMALY":277.5082,"EPHEMERIS_TYPE":0,"CLASSIFICATION_TYPE":"U","NORAD_CAT_ID":51653,"ELEMENT_SET_NO":999,"REV_AT_EPOCH":20119,"BSTAR":-0.0018966,"MEAN_MOTION_DOT":-6.49e-06,"MEAN_MOTION_DDOT":0.0},{"OBJECT_NAME":"ONEWEB-0474","OBJECT_ID":"2022-012AJ","EPOCH":"2026-04-16T18:39:44.365248","MEAN_MOTION":13.10369355,"ECCENTRICITY":0.0002181,"INCLINATION":87.8844,"RA_OF_ASC_NODE":48.4747,"ARG_OF_PERICENTER":84.4062,"MEAN_ANOMALY":275.7314,"EPHEMERIS_TYPE":0,"CLASSIFICATION_TYPE":"U","NORAD_CAT_ID":51654,"ELEMENT_SET_NO":999,"REV_AT_EPOCH":20125,"BSTAR":-0.0015867000000000001,"MEAN_MOTION_DOT":-5.41e-06,"MEAN_MOTION_DDOT":0.0},{"OBJECT_NAME":"ONEWEB-0475","OBJECT_ID":"2022-012AK","EPOCH":"2026-04-16T11:40:10.920000","MEAN_MOTION":13.17649363,"ECCENTRICITY":0.0002366,"INCLINATION":87.9184,"RA_OF_ASC_NODE":18.1293,"ARG_OF_PERICENTER":90.7815,"MEAN_ANOMALY":269.3588,"EPHEMERIS_TYPE":0,"CLASSIFICATION_TYPE":"U","NORAD_CAT_ID":51655,"ELEMENT_SET_NO":999,"REV_AT_EPOCH":20556,"BSTAR":0.00015024000000000003,"MEAN_MOTION_DOT":7.1e-07,"MEAN_MOTION_DDOT":0.0},{"OBJECT_NAME":"ONEWEB-0490","OBJECT_ID":"2022-138A","EPOCH":"2026-04-16T20:59:25.776096","MEAN_MOTION":13.19723179,"ECCENTRICITY":0.0001918,"INCLINATION":87.917,"RA_OF_ASC_NODE":317.1912,"ARG_OF_PERICENTER":83.3156,"MEAN_ANOMALY":276.8195,"EPHEMERIS_TYPE":0,"CLASSIFICATION_TYPE":"U","NORAD_CAT_ID":54113,"ELEMENT_SET_NO":999,"REV_AT_EPOCH":16874,"BSTAR":-0.00014309,"MEAN_MOTION_DOT":-4.4e-07,"MEAN_MOTION_DDOT":0.0},{"OBJECT_NAME":"ONEWEB-0492","OBJECT_ID":"2022-138B","EPOCH":"2026-04-16T14:19:07.142880","MEAN_MOTION":13.19724028,"ECCENTRICITY":0.0001865,"INCLINATION":87.9165,"RA_OF_ASC_NODE":317.2525,"ARG_OF_PERICENTER":79.859,"MEAN_ANOMALY":280.2753,"EPHEMERIS_TYPE":0,"CLASSIFICATION_TYPE":"U","NORAD_CAT_ID":54114,"ELEMENT_SET_NO":999,"REV_AT_EPOCH":16871,"BSTAR":0.0001036,"MEAN_MOTION_DOT":5.4e-07,"MEAN_MOTION_DDOT":0.0},{"OBJECT_NAME":"ONEWEB-0495","OBJECT_ID":"2022-138C","EPOCH":"2026-04-16T21:03:58.841568","MEAN_MOTION":13.19723378,"ECCENTRICITY":0.0002376,"INCLINATION":87.9168,"RA_OF_ASC_NODE":317.1985,"ARG_OF_PERICENTER":80.5426,"MEAN_ANOMALY":279.5976,"EPHEMERIS_TYPE":0,"CLASSIFICATION_TYPE":"U","NORAD_CAT_ID":54115,"ELEMENT_SET_NO":999,"REV_AT_EPOCH":16873,"BSTAR":-7.9517e-05,"MEAN_MOTION_DOT":-1.9e-07,"MEAN_MOTION_DDOT":0.0},{"OBJECT_NAME":"ONEWEB-0497","OBJECT_ID":"2022-138D","EPOCH":"2026-04-16T19:32:59.675712","MEAN_MOTION":13.19723851,"ECCENTRICITY":0.0001836,"INCLINATION":87.9163,"RA_OF_ASC_NODE":317.2015,"ARG_OF_PERICENTER":84.1998,"MEAN_ANOMALY":275.9344,"EPHEMERIS_TYPE":0,"CLASSIFICATION_TYPE":"U","NORAD_CAT_ID":54116,"ELEMENT_SET_NO":999,"REV_AT_EPOCH":16871,"BSTAR":1.1093e-05,"MEAN_MOTION_DOT":1.7e-07,"MEAN_MOTION_DDOT":0.0},{"OBJECT_NAME":"ONEWEB-0499","OBJECT_ID":"2022-138E","EPOCH":"2026-04-16T20:58:18.786720","MEAN_MOTION":13.19724057,"ECCENTRICITY":0.0001916,"INCLINATION":87.9167,"RA_OF_ASC_NODE":317.2007,"ARG_OF_PERICENTER":89.9431,"MEAN_ANOMALY":270.1921,"EPHEMERIS_TYPE":0,"CLASSIFICATION_TYPE":"U","NORAD_CAT_ID":54117,"ELEMENT_SET_NO":999,"REV_AT_EPOCH":16873,"BSTAR":-3.2318000000000005e-05,"MEAN_MOTION_DOT":0.0,"MEAN_MOTION_DDOT":0.0},{"OBJECT_NAME":"ONEWEB-0500","OBJECT_ID":"2022-138F","EPOCH":"2026-04-16T21:01:42.257856","MEAN_MOTION":13.19723116,"ECCENTRICITY":0.0001683,"INCLINATION":87.9169,"RA_OF_ASC_NODE":317.1896,"ARG_OF_PERICENTER":84.0853,"MEAN_ANOMALY":276.0471,"EPHEMERIS_TYPE":0,"CLASSIFICATION_TYPE":"U","NORAD_CAT_ID":54118,"ELEMENT_SET_NO":999,"REV_AT_EPOCH":16874,"BSTAR":-7.1197e-05,"MEAN_MOTION_DOT":-1.6e-07,"MEAN_MOTION_DDOT":0.0},{"OBJECT_NAME":"ONEWEB-0501","OBJECT_ID":"2022-138G","EPOCH":"2026-04-16T19:55:44.279040","MEAN_MOTION":13.19725317,"ECCENTRICITY":0.000212,"INCLINATION":87.9165,"RA_OF_ASC_NODE":317.1991,"ARG_OF_PERICENTER":84.5001,"MEAN_ANOMALY":275.6374,"EPHEMERIS_TYPE":0,"CLASSIFICATION_TYPE":"U","NORAD_CAT_ID":54119,"ELEMENT_SET_NO":999,"REV_AT_EPOCH":16871,"BSTAR":-0.00055316,"MEAN_MOTION_DOT":-2.08e-06,"MEAN_MOTION_DDOT":0.0},{"OBJECT_NAME":"ONEWEB-0502","OBJECT_ID":"2022-138H","EPOCH":"2026-04-16T19:35:16.116864","MEAN_MOTION":13.19724142,"ECCENTRICITY":0.0002033,"INCLINATION":87.9178,"RA_OF_ASC_NODE":317.1897,"ARG_OF_PERICENTER":88.3304,"MEAN_ANOMALY":271.8061,"EPHEMERIS_TYPE":0,"CLASSIFICATION_TYPE":"U","NORAD_CAT_ID":54120,"ELEMENT_SET_NO":999,"REV_AT_EPOCH":16873,"BSTAR":7.0532e-05,"MEAN_MOTION_DOT":4.1e-07,"MEAN_MOTION_DDOT":0.0},{"OBJECT_NAME":"ONEWEB-0503","OBJECT_ID":"2022-138J","EPOCH":"2026-04-16T21:08:31.595136","MEAN_MOTION":13.19722934,"ECCENTRICITY":0.0001758,"INCLINATION":87.9179,"RA_OF_ASC_NODE":317.1812,"ARG_OF_PERICENTER":94.9881,"MEAN_ANOMALY":265.1452,"EPHEMERIS_TYPE":0,"CLASSIFICATION_TYPE":"U","NORAD_CAT_ID":54121,"ELEMENT_SET_NO":999,"REV_AT_EPOCH":16873,"BSTAR":-0.00018302,"MEAN_MOTION_DOT":-6e-07,"MEAN_MOTION_DDOT":0.0},{"OBJECT_NAME":"ONEWEB-0504","OBJECT_ID":"2022-138K","EPOCH":"2026-04-16T13:33:37.645056","MEAN_MOTION":13.1972379,"ECCENTRICITY":0.0002006,"INCLINATION":87.9165,"RA_OF_ASC_NODE":317.251,"ARG_OF_PERICENTER":88.5761,"MEAN_ANOMALY":271.5602,"EPHEMERIS_TYPE":0,"CLASSIFICATION_TYPE":"U","NORAD_CAT_ID":54122,"ELEMENT_SET_NO":999,"REV_AT_EPOCH":16870,"BSTAR":-6.7238e-05,"MEAN_MOTION_DOT":-1.4e-07,"MEAN_MOTION_DDOT":0.0}]