ONEWEB-0463             
1 51650U 22012AE  26106.70223273  .00000047  00000+0  88374-4 0  9999
2 51650  87.9185  18.0941 0001706  75.3627 284.7694 13.17648014205578
ONEWEB-0464             
1 51651U 22012AF  26106.33604910 -.00000462  00000+0 -13603-2 0  9994
2 51651  87.8840  48.5883 0002168  82.6672 277.4701 13.10376158201229
ONEWEB-0468             
1 51652U 22012AG  26106.34269579 -.00000049  00000+0 -17625-3 0  9994
2 51652  87.8840  48.5810 0002263  82.2632 277.8752 13.10376555201207
ONEWEB-0473             
1 51653U 22012AH  26106.25138459 -.00000649  00000+0 -18966-2 0  9991
2 51653  87.8839  48.6002 0001973  82.6269 277.5082 13.10372344201190
ONEWEB-0474             
1 51654U 22012AJ  26106.77759682 -.00000541  00000+0 -15867-2 0  9994
2 51654  87.8844  48.4747 0002181  84.4062 275.7314 13.10369355201257
ONEWEB-0475             
1 51655U 22012AK  26106.48623750  .00000071  00000+0  15024-3 0  9991
2 51655  87.9184  18.1293 0002366  90.7815 269.3588 13.17649363205564
ONEWEB-0490             
1 54113U 22138A   26106.87460389 -.00000044  00000+0 -14309-3 0  9999
2 54113  87.9170 317.1912 0001918  83.3156 276.8195 13.19723179168744
ONEWEB-0492             
1 54114U 22138B   26106.59661045  .00000054  00000+0  10360-3 0  9993
2 54114  87.9165 317.2525 0001865  79.8590 280.2753 13.19724028168713
ONEWEB-0495             
1 54115U 22138C   26106.87776437 -.00000019  00000+0 -79517-4 0  9990
2 54115  87.9168 317.1985 0002376  80.5426 279.5976 13.19723378168738
ONEWEB-0497             
1 54116U 22138D   26106.81457958  .00000017  00000+0  11093-4 0  9990
2 54116  87.9163 317.2015 0001836  84.1998 275.9344 13.19723851168716
ONEWEB-0499             
1 54117U 22138E   26106.87382855  .00000000  00000+0 -32318-4 0  9996
2 54117  87.9167 317.2007 0001916  89.9431 270.1921 13.19724057168735
ONEWEB-0500             
1 54118U 22138F   26106.87618354 -.00000016  00000+0 -71197-4 0  9999
2 54118  87.9169 317.1896 0001683  84.0853 276.0471 13.19723116168749
ONEWEB-0501             
1 54119U 22138G   26106.83037360 -.00000208  00000+0 -55316-3 0  9995
2 54119  87.9165 317.1991 0002120  84.5001 275.6374 13.19725317168718
ONEWEB-0502             
1 54120U 22138H   26106.81615876  .00000041  00000+0  70532-4 0  9990
2 54120  87.9178 317.1897 0002033  88.3304 271.8061 13.19724142168738
ONEWEB-0503             
1 54121U 22138J   26106.88092124 -.00000060  00000+0 -18302-3 0  9992
2 54121  87.9179 317.1812 0001758  94.9881 265.1452 13.19722934168730
ONEWEB-0504             
1 54122U 22138K   26106.56501904 -.00000014  00000+0 -67238-4 0  9991
2 54122  87.9165 317.2510 0002006  88.5761 271.5602 13.19723790168701
